IRIDIUM 144             
1 43249U 18030A   24071.84573674  .00000105  00000+0  30509-4 0  9998
2 43249  86.3913 276.1657 0002144  89.3414 270.8027 14.34217419311577
IRIDIUM 149             
1 43250U 18030B   24071.50323844  .00000096  00000+0  27304-4 0  9993
2 43250  86.3911 276.2852 0002226  86.6913 273.4537 14.34219003311521
IRIDIUM 157             
1 43251U 18030C   24071.52225837  .00000105  00000+0  30400-4 0  9991
2 43251  86.3913 276.3121 0001818  86.8183 273.3221 14.34217518311507
IRIDIUM 140             
1 43252U 18030D   24071.12267808 -.00000009  00000+0 -10449-4 0  9998
2 43252  86.3916 276.4940 0002270  94.6420 265.5035 14.34217114311503
IRIDIUM 145             
1 43253U 18030E   24071.52860305  .00000108  00000+0  31350-4 0  9996
2 43253  86.3914 276.2981 0002402  87.6371 272.5100 14.34216623311492
IRIDIUM 146             
1 43254U 18030F   24071.85842107  .00000042  00000+0  78296-5 0  9991
2 43254  86.3912 276.1751 0002406  87.3610 272.7861 14.34217928311554
IRIDIUM 148             
1 43255U 18030G   24071.82670931  .00000101  00000+0  28990-4 0  9994
2 43255  86.3915 276.2190 0002179  80.8568 279.2874 14.34217512311592
IRIDIUM 142             
1 43256U 18030H   24071.51591956  .00000106  00000+0  30719-4 0  9997
2 43256  86.3911 276.2681 0002293  85.3896 274.7562 14.34217209311503
